start=new Date('2021-10-31T00:00:00.000Z').valueOf();
sats=[{"RCS_SIZE":"LARGE","CENTER_NAME":"EARTH","MEAN_ELEMENT_THEORY":"SGP4","NORAD_CAT_ID":"45548","ARG_OF_PERICENTER":"93.0330","FILE":"3192986","TLE_LINE1":"1 45548U 20025T   21303.68398652  .00001791  00000-0  13911-3 0  9997","TIME_SYSTEM":"UTC","RA_OF_ASC_NODE":"48.9267","DECAY_DATE":null,"OBJECT_TYPE":"PAYLOAD","ECCENTRICITY":"0.00014220","SEMIMAJOR_AXIS":"6925.330","LAUNCH_DATE":"2020-04-22","EPHEMERIS_TYPE":"0","OBJECT_ID":"2020-025T","MEAN_MOTION_DDOT":"0.0000000000000","REF_FRAME":"TEME","SITE":"AFETR","MEAN_ANOMALY":"267.0822","MEAN_MOTION":"15.06405960","TLE_LINE2":"2 45548  53.0558  48.9267 0001422  93.0330 267.0822 15.06405960 84709","REV_AT_EPOCH":"8470","APOAPSIS":"548.180","GP_ID":"188518681","COUNTRY_CODE":"US","PERIAPSIS":"546.211","MEAN_MOTION_DOT":"0.00001791","PERIOD":"95.592","ELEMENT_SET_NO":"999","INCLINATION":"53.0558","EPOCH":"2021-10-30T16:24:56.435328","CLASSIFICATION_TYPE":"U","OBJECT_NAME":"STARLINK-1378","BSTAR":"0.00013911000000"},{"EPOCH":"2021-10-30T16:30:14.866848","INCLINATION":"53.0548","ELEMENT_SET_NO":"999","PERIOD":"95.592","PERIAPSIS":"546.336","MEAN_MOTION_DOT":"0.00001531","BSTAR":"0.00012165000000","OBJECT_NAME":"STARLINK-1379","CLASSIFICATION_TYPE":"U","REV_AT_EPOCH":"8470","TLE_LINE2":"2 45549  53.0548  48.9071 0001242  92.3819 267.7312 15.06405831 84704","MEAN_MOTION":"15.06405831","MEAN_ANOMALY":"267.7312","SITE":"AFETR","REF_FRAME":"TEME","COUNTRY_CODE":"US","GP_ID":"188518308","APOAPSIS":"548.056","ECCENTRICITY":"0.00012420","OBJECT_TYPE":"PAYLOAD","DECAY_DATE":null,"MEAN_MOTION_DDOT":"0.0000000000000","OBJECT_ID":"2020-025U","EPHEMERIS_TYPE":"0","SEMIMAJOR_AXIS":"6925.331","LAUNCH_DATE":"2020-04-22","MEAN_ELEMENT_THEORY":"SGP4","NORAD_CAT_ID":"45549","CENTER_NAME":"EARTH","RCS_SIZE":"LARGE","RA_OF_ASC_NODE":"48.9071","TIME_SYSTEM":"UTC","TLE_LINE1":"1 45549U 20025U   21303.68767207  .00001531  00000-0  12165-3 0  9996","FILE":"3193024","ARG_OF_PERICENTER":"92.3819"},{"MEAN_MOTION_DDOT":"0.0000000000000","OBJECT_ID":"2020-025V","EPHEMERIS_TYPE":"0","LAUNCH_DATE":"2020-04-22","SEMIMAJOR_AXIS":"6925.322","ECCENTRICITY":"0.00012710","OBJECT_TYPE":"PAYLOAD","DECAY_DATE":null,"TIME_SYSTEM":"UTC","RA_OF_ASC_NODE":"49.1481","TLE_LINE1":"1 45550U 20025V   21303.63512002  .00000967  00000-0  83794-4 0  9993","ARG_OF_PERICENTER":"82.9644","FILE":"3192966","MEAN_ELEMENT_THEORY":"SGP4","NORAD_CAT_ID":"45550","CENTER_NAME":"EARTH","RCS_SIZE":"LARGE","BSTAR":"0.00008379400000","OBJECT_NAME":"STARLINK-1390","CLASSIFICATION_TYPE":"U","INCLINATION":"53.0559","EPOCH":"2021-10-30T15:14:34.369728","ELEMENT_SET_NO":"999","PERIOD":"95.592","PERIAPSIS":"546.307","MEAN_MOTION_DOT":"0.00000967","COUNTRY_CODE":"US","GP_ID":"188518364","APOAPSIS":"548.067","TLE_LINE2":"2 45550  53.0559  49.1481 0001271  82.9644 277.1489 15.06408592 84683","REV_AT_EPOCH":"8468","MEAN_MOTION":"15.06408592","MEAN_ANOMALY":"277.1489","SITE":"AFETR","REF_FRAME":"TEME"},{"MEAN_ANOMALY":"272.1183","SITE":"AFETR","REF_FRAME":"TEME","TLE_LINE2":"2 45551  53.0548  29.7365 0001414  87.9968 272.1183 15.06406479 85544","REV_AT_EPOCH":"8554","MEAN_MOTION":"15.06406479","COUNTRY_CODE":"US","GP_ID":"188513676","APOAPSIS":"548.173","INCLINATION":"53.0548","EPOCH":"2021-10-30T12:07:30.756576","PERIOD":"95.592","ELEMENT_SET_NO":"999","MEAN_MOTION_DOT":"0.00001164","PERIAPSIS":"546.214","CLASSIFICATION_TYPE":"U","BSTAR":"0.00009703100000","OBJECT_NAME":"STARLINK-1294","MEAN_ELEMENT_THEORY":"SGP4","NORAD_CAT_ID":"45551","CENTER_NAME":"EARTH","RCS_SIZE":"LARGE","RA_OF_ASC_NODE":"29.7365","TIME_SYSTEM":"UTC","TLE_LINE1":"1 45551U 20025W   21303.50521709  .00001164  00000-0  97031-4 0  9993","FILE":"3192905","ARG_OF_PERICENTER":"87.9968","DECAY_DATE":null,"ECCENTRICITY":"0.00014140","OBJECT_TYPE":"PAYLOAD","EPHEMERIS_TYPE":"0","LAUNCH_DATE":"2020-04-22","SEMIMAJOR_AXIS":"6925.329","MEAN_MOTION_DDOT":"0.0000000000000","OBJECT_ID":"2020-025W"},{"EPHEMERIS_TYPE":"0","LAUNCH_DATE":"2020-04-22","SEMIMAJOR_AXIS":"6848.393","MEAN_MOTION_DDOT":"0.0000000000000","OBJECT_ID":"2020-025X","DECAY_DATE":null,"OBJECT_TYPE":"PAYLOAD","ECCENTRICITY":"0.00017630","TLE_LINE1":"1 45552U 20025X   21303.78735291  .00096035  00000-0  30511-2 0  9996","RA_OF_ASC_NODE":"23.0853","TIME_SYSTEM":"UTC","FILE":"3192985","ARG_OF_PERICENTER":"67.8221","MEAN_ELEMENT_THEORY":"SGP4","NORAD_CAT_ID":"45552","RCS_SIZE":"LARGE","CENTER_NAME":"EARTH","CLASSIFICATION_TYPE":"U","BSTAR":"0.00305110000000","OBJECT_NAME":"STARLINK-1322","EPOCH":"2021-10-30T18:53:47.291424","INCLINATION":"53.0567","MEAN_MOTION_DOT":"0.00096035","PERIAPSIS":"469.050","ELEMENT_SET_NO":"999","PERIOD":"94.003","GP_ID":"188518665","COUNTRY_CODE":"US","APOAPSIS":"471.465","MEAN_ANOMALY":"292.2966","REF_FRAME":"TEME","SITE":"AFETR","REV_AT_EPOCH":"8505","TLE_LINE2":"2 45552  53.0567  23.0853 0001763  67.8221 292.2966 15.31862442 85053","MEAN_MOTION":"15.31862442"},{"OBJECT_ID":"2020-025Y","MEAN_MOTION_DDOT":"0.0000000000000","SEMIMAJOR_AXIS":"6925.351","LAUNCH_DATE":"2020-04-22","EPHEMERIS_TYPE":"0","OBJECT_TYPE":"PAYLOAD","ECCENTRICITY":"0.00011080","DECAY_DATE":null,"ARG_OF_PERICENTER":"94.8146","FILE":"3192905","TLE_LINE1":"1 45553U 20025Y   21303.51627765  .00001345  00000-0  10919-3 0  9995","RA_OF_ASC_NODE":"29.6819","TIME_SYSTEM":"UTC","RCS_SIZE":"LARGE","CENTER_NAME":"EARTH","NORAD_CAT_ID":"45553","MEAN_ELEMENT_THEORY":"SGP4","OBJECT_NAME":"STARLINK-1323","BSTAR":"0.00010919000000","CLASSIFICATION_TYPE":"U","PERIAPSIS":"546.449","MEAN_MOTION_DOT":"0.00001345","ELEMENT_SET_NO":"999","PERIOD":"95.592","INCLINATION":"53.0567","EPOCH":"2021-10-30T12:23:26.388960","APOAPSIS":"547.983","GP_ID":"188512675","COUNTRY_CODE":"US","MEAN_MOTION":"15.06399223","TLE_LINE2":"2 45553  53.0567  29.6819 0001108  94.8146 265.2970 15.06399223 84257","REV_AT_EPOCH":"8425","REF_FRAME":"TEME","SITE":"AFETR","MEAN_ANOMALY":"265.2970"},{"TIME_SYSTEM":"UTC","RA_OF_ASC_NODE":"29.4209","TLE_LINE1":"1 45554U 20025Z   21303.57524991  .00001352  00000-0  10966-3 0  9999","FILE":"3192947","ARG_OF_PERICENTER":"94.0776","NORAD_CAT_ID":"45554","MEAN_ELEMENT_THEORY":"SGP4","CENTER_NAME":"EARTH","RCS_SIZE":"LARGE","EPHEMERIS_TYPE":"0","SEMIMAJOR_AXIS":"6925.341","LAUNCH_DATE":"2020-04-22","MEAN_MOTION_DDOT":"0.0000000000000","OBJECT_ID":"2020-025Z","DECAY_DATE":null,"ECCENTRICITY":"0.00013700","OBJECT_TYPE":"PAYLOAD","COUNTRY_CODE":"US","GP_ID":"188517744","APOAPSIS":"548.155","MEAN_ANOMALY":"266.0370","SITE":"AFETR","REF_FRAME":"TEME","TLE_LINE2":"2 45554  53.0549  29.4209 0001370  94.0776 266.0370 15.06402379 84947","REV_AT_EPOCH":"8494","MEAN_MOTION":"15.06402379","CLASSIFICATION_TYPE":"U","BSTAR":"0.00010966000000","OBJECT_NAME":"STARLINK-1325","INCLINATION":"53.0549","EPOCH":"2021-10-30T13:48:21.592224","ELEMENT_SET_NO":"999","PERIOD":"95.592","PERIAPSIS":"546.257","MEAN_MOTION_DOT":"0.00001352"},{"REV_AT_EPOCH":"8495","TLE_LINE2":"2 45555  53.0568  29.2884 0001305  74.9170 285.1963 15.06398509 84959","MEAN_MOTION":"15.06398509","MEAN_ANOMALY":"285.1963","SITE":"AFETR","REF_FRAME":"TEME","COUNTRY_CODE":"US","GP_ID":"188518155","APOAPSIS":"548.122","EPOCH":"2021-10-30T14:30:49.427136","INCLINATION":"53.0568","PERIOD":"95.592","ELEMENT_SET_NO":"999","MEAN_MOTION_DOT":"-0.00000097","PERIAPSIS":"546.314","BSTAR":"0.00001236400000","OBJECT_NAME":"STARLINK-1327","CLASSIFICATION_TYPE":"U","NORAD_CAT_ID":"45555","MEAN_ELEMENT_THEORY":"SGP4","CENTER_NAME":"EARTH","RCS_SIZE":"LARGE","RA_OF_ASC_NODE":"29.2884","TIME_SYSTEM":"UTC","TLE_LINE1":"1 45555U 20025AA  21303.60473874 -.00000097  00000-0  12364-4 0  9998","ARG_OF_PERICENTER":"74.9170","FILE":"3192948","ECCENTRICITY":"0.00013050","OBJECT_TYPE":"PAYLOAD","DECAY_DATE":null,"MEAN_MOTION_DDOT":"0.0000000000000","OBJECT_ID":"2020-025AA","EPHEMERIS_TYPE":"0","SEMIMAJOR_AXIS":"6925.353","LAUNCH_DATE":"2020-04-22"},{"INCLINATION":"53.0560","EPOCH":"2021-10-30T13:53:40.042752","PERIAPSIS":"546.279","MEAN_MOTION_DOT":"0.00001362","ELEMENT_SET_NO":"999","PERIOD":"95.592","CLASSIFICATION_TYPE":"U","BSTAR":"0.00011032000000","OBJECT_NAME":"STARLINK-1334","MEAN_ANOMALY":"274.0207","REF_FRAME":"TEME","SITE":"AFETR","TLE_LINE2":"2 45556  53.0560  29.4020 0001326  86.0933 274.0207 15.06405181 84953","REV_AT_EPOCH":"8495","MEAN_MOTION":"15.06405181","GP_ID":"188518635","COUNTRY_CODE":"US","APOAPSIS":"548.116","DECAY_DATE":null,"OBJECT_TYPE":"PAYLOAD","ECCENTRICITY":"0.00013260","EPHEMERIS_TYPE":"0","LAUNCH_DATE":"2020-04-22","SEMIMAJOR_AXIS":"6925.333","MEAN_MOTION_DDOT":"0.0000000000000","OBJECT_ID":"2020-025AB","MEAN_ELEMENT_THEORY":"SGP4","NORAD_CAT_ID":"45556","RCS_SIZE":"LARGE","CENTER_NAME":"EARTH","TLE_LINE1":"1 45556U 20025AB  21303.57893568  .00001362  00000-0  11032-3 0  9996","RA_OF_ASC_NODE":"29.4020","TIME_SYSTEM":"UTC","ARG_OF_PERICENTER":"86.0933","FILE":"3192997"},{"OBJECT_ID":"2020-025AC","MEAN_MOTION_DDOT":"0.0000000000000","LAUNCH_DATE":"2020-04-22","SEMIMAJOR_AXIS":"6925.381","EPHEMERIS_TYPE":"0","OBJECT_TYPE":"PAYLOAD","ECCENTRICITY":"0.00012870","DECAY_DATE":null,"FILE":"3192905","ARG_OF_PERICENTER":"90.9801","TLE_LINE1":"1 45557U 20025AC  21303.51997912 -.00001137  00000-0 -57497-4 0  9997","RA_OF_ASC_NODE":"29.6667","TIME_SYSTEM":"UTC","RCS_SIZE":"LARGE","CENTER_NAME":"EARTH","MEAN_ELEMENT_THEORY":"SGP4","NORAD_CAT_ID":"45557","OBJECT_NAME":"STARLINK-1336","BSTAR":"-0.00005749700000","CLASSIFICATION_TYPE":"U","MEAN_MOTION_DOT":"-0.00001137","PERIAPSIS":"546.355","PERIOD":"95.593","ELEMENT_SET_NO":"999","INCLINATION":"53.0566","EPOCH":"2021-10-30T12:28:46.195968","APOAPSIS":"548.137","GP_ID":"188513175","COUNTRY_CODE":"US","MEAN_MOTION":"15.06389377","TLE_LINE2":"2 45557  53.0566  29.6667 0001287  90.9801 269.1335 15.06389377 85544","REV_AT_EPOCH":"8554","REF_FRAME":"TEME","SITE":"AFETR","MEAN_ANOMALY":"269.1335"}];
